{
    "links": {
        "self": "http://www.neowsapp.com/rest/v1/neo/3781001?api_key=iIulBulltgU6a56xZRHN4H3l9WmuAYTsLGpBGhQ2"
    },
    "id": "3781001",
    "neo_reference_id": "3781001",
    "name": "(2017 QB17)",
    "designation": "2017 QB17",
    "nasa_jpl_url": "http://ssd.jpl.nasa.gov/sbdb.cgi?sstr=3781001",
    "absolute_magnitude_h": 24.8,
    "estimated_diameter": {
        "kilometers": {
            "estimated_diameter_min": 0.0291443905,
            "estimated_diameter_max": 0.0651688382
        },
        "meters": {
            "estimated_diameter_min": 29.1443904535,
            "estimated_diameter_max": 65.1688382168
        },
        "miles": {
            "estimated_diameter_min": 0.018109479,
            "estimated_diameter_max": 0.0404940262
        },
        "feet": {
            "estimated_diameter_min": 95.6180819754,
            "estimated_diameter_max": 213.8085311752
        }
    },
    "is_potentially_hazardous_asteroid": false,
    "close_approach_data": [
        {
            "close_approach_date": "2017-07-19",
            "close_approach_date_full": "2017-Jul-19 12:58",
            "epoch_date_close_approach": 1500469080000,
            "relative_velocity": {
                "kilometers_per_second": "5.6169893468",
                "kilometers_per_hour": "20221.1616483867",
                "miles_per_hour": "12564.643469799"
            },
            "miss_distance": {
                "astronomical": "0.0991617307",
                "lunar": "38.5739132423",
                "kilometers": "14834383.698233609",
                "miles": "9217658.6015734442"
            },
            "orbiting_body": "Earth"
        }
    ],
    "orbital_data": {
        "orbit_id": "2",
        "orbit_determination_date": "2018-01-18 06:53:17",
        "first_observation_date": "2017-08-18",
        "last_observation_date": "2017-08-23",
        "data_arc_in_days": 5,
        "observations_used": 14,
        "orbit_uncertainty": "9",
        "minimum_orbit_intersection": ".0989469",
        "jupiter_tisserand_invariant": "3.392",
        "epoch_osculation": "2457984.5",
        "eccentricity": ".517334952868523",
        "semi_major_axis": "2.31021684306257",
        "inclination": "2.478758214520085",
        "ascending_node_longitude": "122.4897047297471",
        "orbital_period": "1282.559570137079",
        "perihelion_distance": "1.115060921440727",
        "perihelion_argument": "173.433046725946",
        "aphelion_distance": "3.505372764684412",
        "perihelion_time": "2457953.517688899681",
        "mean_anomaly": "8.696385147180921",
        "mean_motion": ".2806887168301457",
        "equinox": "J2000",
        "orbit_class": {
            "orbit_class_type": "AMO",
            "orbit_class_description": "Near-Earth asteroid orbits similar to that of 1221 Amor",
            "orbit_class_range": "1.017 AU < q (perihelion) < 1.3 AU"
        }
    },
    "is_sentry_object": false
}